TDRS 3                  
1 19548U 88091B   26181.79070582 -.00000291  00000+0  00000+0 0  9990
2 19548  12.5913 340.9097 0037227 356.7189 177.0046  1.00269185125524
FLTSATCOM 8 (USA 46)    
1 20253U 89077A   26181.39749484 -.00000361  00000+0  00000+0 0  9998
2 20253  12.4177 351.0837 0003776  61.7194 134.5245  1.00270675260699
SKYNET 4C               
1 20776U 90079A   26162.20198486  .00000132  00000+0  00000+0 0  9996
2 20776  13.3424 349.8525 0002400  96.2313 279.5534  1.00274127130831
TDRS 5                  
1 21639U 91054B   26181.69587235  .00000089  00000+0  00000+0 0  9998
2 21639  14.0692 353.6765 0006416 260.1130 107.8620  1.00268942127859
TDRS 6                  
1 22314U 93003B   26181.41254731 -.00000291  00000+0  00000+0 0  9993
2 22314  14.1829 356.9600 0008689 180.1597 203.8924  1.00266525122549
UFO 2 (USA 95)          
1 22787U 93056A   26181.66344949  .00000130  00000+0  00000+0 0  9994
2 22787  11.8993   3.4800 0004304   8.7455 173.9893  1.00275090118682
USA 99 (MILSTAR-1 1)    
1 22988U 94009A   26181.50146067 -.00000116  00000+0  00000+0 0  9995
2 22988  17.6455  27.5666 0000878 181.8507 180.4144  0.98722253 33088
UFO 4 (USA 108)         
1 23467U 95003A   26181.76319059 -.00000016  00000+0  00000+0 0  9993
2 23467   9.6876  13.1389 0002937  82.7711 269.8831  1.00274208115088
TDRS 7                  
1 23613U 95035B   26181.46159032 -.00000234  00000+0  00000+0 0  9993
2 23613  13.3716 348.0981 0011716  82.7068 102.9743  1.00277783113385
USA 115 (MILSTAR-1 2)   
1 23712U 95060A   26180.49930475 -.00000209  00000+0  00000+0 0  9993
2 23712  14.0768   3.6553 0002402 138.2694 225.2498  1.00363709 33014
INMARSAT 3-F1           
1 23839U 96020A   26181.60080605 -.00000026  00000+0  00000+0 0  9992
2 23839  10.6281  46.5101 0003926  70.8624 268.2184  0.99978112110389
INMARSAT 3-F2           
1 24307U 96053A   26181.54215191 -.00000331  00000+0  00000+0 0  9991
2 24307   9.8862  53.7995 0006414  41.7989 154.5325  0.99998746109053
INMARSAT 3-F3           
1 24674U 96070A   26181.84072557  .00000117  00000+0  00000+0 0  9998
2 24674  10.3469  49.5216 0003290  54.7239 145.7482  0.99988999108043
USA 134                 
1 25019U 97065A   26181.60235604 -.00000059  00000+0  00000+0 0  9991
2 25019  12.7991  21.6195 0002735 348.2789  13.1911  1.00271126 33091
INMARSAT 3-F5           
1 25153U 98006B   26181.07675966 -.00000287  00000+0  00000+0 0  9999
2 25153   9.7204  53.1307 0004309  43.0205 155.6670  1.00271672104022
ABS-6                   
1 25924U 99053A   26181.61797774 -.00000109  00000+0  00000+0 0  9993
2 25924   0.0485 274.9445 0003076 161.7085 223.4945  1.00271879 97976
UFO 10 (USA 146)        
1 25967U 99063A   26180.37000920 -.00000185  00000+0  00000+0 0  9997
2 25967   9.8449  27.1462 0001552  73.9701 286.4977  1.00268568 97462
ASIASTAR                
1 26107U 00016A   26181.60730499 -.00000329  00000+0  00000+0 0  9992
2 26107   9.1591  58.0096 0004572  40.1566 144.1522  1.00270804 96052
USA 149 (DSP 20)        
1 26356U 00024A   26181.69639236  .00000100  00000+0  00000+0 0  9999
2 26356  13.1800  11.7534 0001386 321.0483  31.5583  1.00281567 33042
TDRS 8                  
1 26388U 00034A   26181.60323163 -.00000193  00000+0  00000+0 0  9998
2 26388  12.7043  31.2070 0004600  25.9320 163.4675  1.00275124 95312
NSS-11                  
1 26554U 00059A   26181.76397059  .00000034  00000+0  00000+0 0  9995
2 26554   2.1600  81.2417 0003209  14.4280 274.1838  1.00272153 41424
USA 153                 
1 26575U 00065A   26181.47055027 -.00000323  00000+0  00000+0 0  9991
2 26575  11.6465  35.3089 0003036  54.5579 132.3965  1.00267599 33065
AMC-6                   
1 26580U 00067A   26181.77359065  .00000098  00000+0  00000+0 0  9999
2 26580   0.1853  83.4353 0004047  27.6442 311.2218  1.00274111 94026
USA 157 (MILSTAR-2 2)   
1 26715U 01009A   26181.69933904  .00000114  00000+0  00000+0 0  9996
2 26715  11.5567  19.6772 0039800 178.1583 182.6455  1.00269053 33084
INTELSAT 902 (IS-902)   
1 26900U 01039A   26181.50527403 -.00000277  00000+0  00000+0 0  9999
2 26900   6.1497  71.6208 0004210  28.0626 310.6671  1.00270084 90826
USA 164 (MILSTAR-2 3)   
1 27168U 02001A   26180.82961494  .00000101  00000+0  00000+0 0  9997
2 27168  11.1939  21.8279 0099417   8.8560 204.7984  1.00272159 33081
INTELSAT 904 (IS-904)   
1 27380U 02007A   26181.50882737 -.00000220  00000+0  00000+0 0  9990
2 27380   6.9515  69.0258 0006411  14.1461 347.1033  1.00272128 51906
DIRECTV 5 (TEMPO 1)     
1 27426U 02023A   26181.70731242 -.00000050  00000+0  00000+0 0  9996
2 27426   4.9105  75.1460 0003560  31.4863 316.6665  1.00271758 88251
INTELSAT 905 (IS-905)   
1 27438U 02027A   26181.77324397  .00000099  00000+0  00000+0 0  9991
2 27438   6.7857  69.6375 0004049  31.2679 319.0932  1.00271993 51498
GALAXY 3C (G-3C)        
1 27445U 02030A   26181.59529704 -.00000145  00000+0  00000+0 0  9995
2 27445   3.7656  77.8074 0001971  27.2183 293.1133  1.00272227 46628
INTELSAT 906 (IS-906)   
1 27513U 02041A   26181.81302442  .00000019  00000+0  00000+0 0  9995
2 27513   5.8362  72.7538 0004120  11.2519 191.7076  1.00272975 87168
