OBJECT_NAME,OBJECT_ID,EPOCH,MEAN_MOTION,ECCENTRICITY,INCLINATION,RA_OF_ASC_NODE,ARG_OF_PERICENTER,MEAN_ANOMALY,EPHEMERIS_TYPE,CLASSIFICATION_TYPE,NORAD_CAT_ID,ELEMENT_SET_NO,REV_AT_EPOCH,BSTAR,MEAN_MOTION_DOT,MEAN_MOTION_DDOT
TDRS 3,1988-091B,2026-06-30T18:58:36.982848,1.00269185,.0037227,12.5913,340.9097,356.7189,177.0046,0,U,19548,999,12552,0,-.291E-5,0
FLTSATCOM 8 (USA 46),1989-077A,2026-06-30T09:32:23.554176,1.00270675,.0003776,12.4177,351.0837,61.7194,134.5245,0,U,20253,999,26069,0,-.361E-5,0
SKYNET 4C,1990-079A,2026-06-11T04:50:51.491904,1.00274127,.00024002,13.3424,349.8525,96.2313,279.5534,0,U,20776,999,13083,0,.132E-5,0
TDRS 5,1991-054B,2026-06-30T16:42:03.371040,1.00268942,.0006416,14.0692,353.6765,260.1130,107.8620,0,U,21639,999,12785,0,.89E-6,0
TDRS 6,1993-003B,2026-06-30T09:54:04.087584,1.00266525,.00086897,14.1829,356.9600,180.1597,203.8924,0,U,22314,999,12254,0,-.291E-5,0
UFO 2 (USA 95),1993-056A,2026-06-30T15:55:22.035936,1.00275090,.0004304,11.8993,3.4800,8.7455,173.9893,0,U,22787,999,11868,0,.13E-5,0
USA 99 (MILSTAR-1 1),1994-009A,2026-06-30T12:02:06.201888,0.98722253,.0000878,17.6455,27.5666,181.8507,180.4144,0,U,22988,999,3308,0,-.116E-5,0
UFO 4 (USA 108),1995-003A,2026-06-30T18:18:59.666976,1.00274208,.0002937,9.6876,13.1389,82.7711,269.8831,0,U,23467,999,11508,0,-.16E-6,0
TDRS 7,1995-035B,2026-06-30T11:04:41.403648,1.00277783,.00117166,13.3716,348.0981,82.7068,102.9743,0,U,23613,999,11338,0,-.234E-5,0
USA 115 (MILSTAR-1 2),1995-060A,2026-06-29T11:58:59.930400,1.00363709,.00024023,14.0768,3.6553,138.2694,225.2498,0,U,23712,999,3301,0,-.209E-5,0
INMARSAT 3-F1,1996-020A,2026-06-30T14:25:09.642720,0.99978112,.0003926,10.6281,46.5101,70.8624,268.2184,0,U,23839,999,11038,0,-.26E-6,0
INMARSAT 3-F2,1996-053A,2026-06-30T13:00:41.925024,0.99998746,.0006414,9.8862,53.7995,41.7989,154.5325,0,U,24307,999,10905,0,-.331E-5,0
INMARSAT 3-F3,1996-070A,2026-06-30T20:10:38.689248,0.99988999,.000329,10.3469,49.5216,54.7239,145.7482,0,U,24674,999,10804,0,.117E-5,0
USA 134,1997-065A,2026-06-30T14:27:23.561856,1.00271126,.0002735,12.7991,21.6195,348.2789,13.1911,0,U,25019,999,3309,0,-.59E-6,0
INMARSAT 3-F5,1998-006B,2026-06-30T01:50:32.034624,1.00271672,.00043096,9.7204,53.1307,43.0205,155.6670,0,U,25153,999,10402,0,-.287E-5,0
ABS-6,1999-053A,2026-06-30T14:49:53.276736,1.00271879,.0003076,0.0485,274.9445,161.7085,223.4945,0,U,25924,999,9797,0,-.109E-5,0
UFO 10 (USA 146),1999-063A,2026-06-29T08:52:48.794880,1.00268568,.00015526,9.8449,27.1462,73.9701,286.4977,0,U,25967,999,9746,0,-.185E-5,0
ASIASTAR,2000-016A,2026-06-30T14:34:31.151136,1.00270804,.0004572,9.1591,58.0096,40.1566,144.1522,0,U,26107,999,9605,0,-.329E-5,0
USA 149 (DSP 20),2000-024A,2026-06-30T16:42:48.299904,1.00281567,.0001386,13.1800,11.7534,321.0483,31.5583,0,U,26356,999,3304,0,.1E-5,0
TDRS 8,2000-034A,2026-06-30T14:28:39.212832,1.00275124,.00046,12.7043,31.2070,25.9320,163.4675,0,U,26388,999,9531,0,-.193E-5,0
NSS-11,2000-059A,2026-06-30T18:20:07.058976,1.00272153,.0003209,2.1600,81.2417,14.4280,274.1838,0,U,26554,999,4142,0,.34E-6,0
USA 153,2000-065A,2026-06-30T11:17:35.543328,1.00267599,.0003036,11.6465,35.3089,54.5579,132.3965,0,U,26575,999,3306,0,-.323E-5,0
AMC-6,2000-067A,2026-06-30T18:33:58.232160,1.00274111,.0004047,0.1853,83.4353,27.6442,311.2218,0,U,26580,999,9402,0,.98E-6,0
USA 157 (MILSTAR-2 2),2001-009A,2026-06-30T16:47:02.893056,1.00269053,.00398,11.5567,19.6772,178.1583,182.6455,0,U,26715,999,3308,0,.114E-5,0
INTELSAT 902 (IS-902),2001-039A,2026-06-30T12:07:35.676192,1.00270084,.00042105,6.1497,71.6208,28.0626,310.6671,0,U,26900,999,9082,0,-.277E-5,0
USA 164 (MILSTAR-2 3),2002-001A,2026-06-29T19:54:38.730816,1.00272159,.00994174,11.1939,21.8279,8.8560,204.7984,0,U,27168,999,3308,0,.101E-5,0
INTELSAT 904 (IS-904),2002-007A,2026-06-30T12:12:42.684768,1.00272128,.00064115,6.9515,69.0258,14.1461,347.1033,0,U,27380,999,5190,0,-.22E-5,0
DIRECTV 5 (TEMPO 1),2002-023A,2026-06-30T16:58:31.793088,1.00271758,.000356,4.9105,75.1460,31.4863,316.6665,0,U,27426,999,8825,0,-.5E-6,0
INTELSAT 905 (IS-905),2002-027A,2026-06-30T18:33:28.279008,1.00271993,.0004049,6.7857,69.6375,31.2679,319.0932,0,U,27438,999,5149,0,.99E-6,0
GALAXY 3C (G-3C),2002-030A,2026-06-30T14:17:13.664256,1.00272227,.0001971,3.7656,77.8074,27.2183,293.1133,0,U,27445,999,4662,0,-.145E-5,0
INTELSAT 906 (IS-906),2002-041A,2026-06-30T19:30:45.309888,1.00272975,.000412,5.8362,72.7538,11.2519,191.7076,0,U,27513,999,8716,0,.19E-6,0
